NORAD_CAT_ID,OBJECT_NAME,OBJECT_TYPE,EPOCH,MEAN_MOTION,ECCENTRICITY,INCLINATION,RA_OF_ASC_NODE,ARG_OF_PERICENTER,MEAN_ANOMALY,BSTAR,MEAN_MOTION_DOT,MEAN_MOTION_DDOT,TLE_LINE0,TLE_LINE1,TLE_LINE2,SEMIMAJOR_AXIS,PERIOD,APOGEE,PERIGEE,DECAYED
51789.0,STARLINK-3639,PAYLOAD,2022-03-12 06:00:00,15.73236469,0.0001294,53.2187,71.3014,50.6722,264.9312,-0.00088149,-0.00122733,0.0,0 STARLINK-3639,1 51789U 22017X   22071.25001157 -.00122733  00000-0 -88149-3 0  9998,2 51789  53.2187  71.3014 0001294  50.6722 264.9312 15.73236469  3547,6727.791,91.531,350.527,348.786,0.0
51789.0,STARLINK-3639,PAYLOAD,2022-03-12 14:00:01,15.732061300000002,0.0001176,53.2171,69.6424,66.0459,338.1401,-1.8376e-05,-3.198e-05,0.0,0 STARLINK-3639,1 51789U 22017X   22071.58334491 -.00003198  00000-0 -18376-4 0  9993,2 51789  53.2171  69.6424 0001176  66.0459 338.1401 15.73206130  3592,6727.878000000002,91.533,350.534,348.951,0.0
51789.0,STARLINK-3639,PAYLOAD,2022-03-12 22:00:00,15.73196303,0.0001298,53.2183,68.0011,64.5669,68.8415,-4.6219e-05,-7.099999999999999e-05,0.0,0 STARLINK-3639,1 51789U 22017X   22071.91667824 -.00007100  00000-0 -46219-4 0  9993,2 51789  53.2183  68.0011 0001298  64.5669  68.8415 15.73196303  3649,6727.906,91.533,350.644,348.897,0.0
51789.0,STARLINK-3639,PAYLOAD,2022-03-13 14:00:01,15.73179362,0.0001203,53.2185,64.7039,48.1354,263.0869,-2.2288e-05,-3.743e-05,0.0,0 STARLINK-3639,1 51789U 22017X   22072.58334491 -.00003743  00000-0 -22288-4 0  9997,2 51789  53.2185  64.7039 0001203  48.1354 263.0869 15.73179362  3007,6727.954000000002,91.534,350.62800000000016,349.01,0.0
51789.0,STARLINK-3639,PAYLOAD,2022-03-13 20:00:01,15.72710348,0.0001428,53.2177,63.4572,50.9804,236.9881,0.0052251,0.00789366,0.0,0 STARLINK-3639,1 51789U 22017X   22072.83334491  .00789366  00000-0  52251-2 0  9996,2 51789  53.2177  63.4572 0001428  50.9804 236.9881 15.72710348  3788,6729.292,91.562,352.117,350.196,0.0
51789.0,STARLINK-3639,PAYLOAD,2022-03-13 22:00:01,15.7300172,0.0001569,53.2175,63.0438,53.2351,346.8518,0.0023367,0.00337991,0.0,0 STARLINK-3639,1 51789U 22017X   22072.91668981  .00337991  00000-0  23367-2 0  9998,2 51789  53.2175  63.0438 0001569  53.2351 346.8518 15.73001720  3069,6728.4609999999975,91.545,351.381,349.27,0.0
51789.0,STARLINK-3639,PAYLOAD,2022-03-14 04:00:00,15.7328166,0.000132,53.2189,61.8169,57.6582,319.2368,-0.0003567,-0.00050555,0.0,0 STARLINK-3639,1 51789U 22017X   22073.16667824 -.00050555  00000-0 -35670-3 0  9992,2 51789  53.2189  61.8169 0001320  57.6582 319.2368 15.73281660  3846,6727.6619999999975,91.528,350.415,348.639,0.0
51789.0,STARLINK-3639,PAYLOAD,2022-03-14 12:00:00,15.732795,0.0001530999999999,53.2185,60.1678,57.095,48.7952,-2.4544e-06,-9.67e-06,0.0,0 STARLINK-3639,1 51789U 22017X   22073.50001157 -.00000967  00000-0 -24544-5 0  9993,2 51789  53.2185  60.1678 0001531  57.0950  48.7952 15.73279500  3894,6727.669,91.529,350.564,348.504,0.0
51789.0,STARLINK-3639,PAYLOAD,2022-03-14 14:00:01,15.73313878,0.000148,53.2184,59.7548,60.5993,157.6128,-0.00034819,-0.00049439,0.0,0 STARLINK-3639,1 51789U 22017X   22073.58335648 -.00049439  00000-0 -34819-3 0  9997,2 51789  53.2184  59.7548 0001480  60.5993 157.6128 15.73313878  3164,6727.571,91.527,350.431,348.44,0.0
51789.0,STARLINK-3639,PAYLOAD,2022-03-14 20:00:01,15.73272776,0.0001355,53.2183,58.5163,71.1135,123.8239,0.00033365,0.00046612,0.0,0 STARLINK-3639,1 51789U 22017X   22073.83334491  .00046612  00000-0  33365-3 0  9993,2 51789  53.2183  58.5163 0001355  71.1135 123.8239 15.73272776  3204,6727.688,91.529,350.464,348.641,0.0
51789.0,STARLINK-3639,PAYLOAD,2022-03-14 22:00:00,15.73282498,0.0001372,53.2185,58.1039,71.1978,235.9598,-0.0002033,-0.00029154,0.0,0 STARLINK-3639,1 51789U 22017X   22073.91667824 -.00029154  00000-0 -20330-3 0  9993,2 51789  53.2185  58.1039 0001372  71.1978 235.9598 15.73282498  3966,6727.66,91.528,350.4480000000001,348.602,0.0
51789.0,STARLINK-3639,PAYLOAD,2022-03-15 02:00:01,15.73296492,0.0001359,53.2186,57.2801,67.5001,104.1649,-0.00075085,-0.00105123,0.0,0 STARLINK-3639,1 51789U 22017X   22074.08334491 -.00105123  00000-0 -75085-3 0  9991,2 51789  53.2186  57.2801 0001359  67.5001 104.1649 15.73296492  3980,6727.62,91.528,350.399,348.571,0.0
51789.0,STARLINK-3639,PAYLOAD,2022-03-15 22:00:00,15.72943869,0.0001076,53.219,53.1556,66.2255,147.5657,0.0017989,0.0025689,0.0,0 STARLINK-3639,1 51789U 22017X   22074.91667824  .00256890  00000-0  17989-2 0  9996,2 51789  53.2190  53.1556 0001076  66.2255 147.5657 15.72943869  4112,6728.626,91.548,351.215,349.767,0.0
51789.0,STARLINK-3639,PAYLOAD,2022-03-16 12:00:00,15.73191788,9.98e-05,53.2187,50.2713,44.9548,234.2185,0.00033185,0.00046192,0.0,0 STARLINK-3639,1 51789U 22017X   22075.50001157  .00046192  00000-0  33185-3 0  9992,2 51789  53.2187  50.2713 0000998  44.9548 234.2185 15.73191788  4207,6727.919,91.534,350.455,349.112,0.0
51789.0,STARLINK-3639,PAYLOAD,2022-03-16 14:00:01,15.73208454,9.49e-05,53.2188,49.8584,49.3593,342.0416,0.00021611,0.00029828,0.0,0 STARLINK-3639,1 51789U 22017X   22075.58334491  .00029828  00000-0  21611-3 0  9998,2 51789  53.2188  49.8584 0000949  49.3593 342.0416 15.73208454  3486,6727.871,91.533,350.375,349.098,0.0
51789.0,STARLINK-3639,PAYLOAD,2022-03-16 20:00:01,15.73198331,8.66e-05,53.2188,48.6201,61.2365,306.873,0.0007687,0.00108658,0.0,0 STARLINK-3639,1 51789U 22017X   22075.83334491  .00108658  00000-0  76870-3 0  9992,2 51789  53.2188  48.6201 0000866  61.2365 306.8730 15.73198331  3521,6727.9,91.533,350.348,349.182,0.0
51789.0,STARLINK-3639,PAYLOAD,2022-03-17 06:00:00,15.73286107,0.0001212,53.2191,46.5606,56.1849,153.1182,-0.00069731,-0.00097711,0.0,0 STARLINK-3639,1 51789U 22017X   22076.25001157 -.00097711  00000-0 -69731-3 0  9996,2 51789  53.2191  46.5606 0001212  56.1849 153.1182 15.73286107  4329,6727.65,91.528,350.33,348.699,0.0
51789.0,STARLINK-3639,PAYLOAD,2022-03-17 14:00:01,15.73216765,0.0001334,53.2191,44.9097,66.1119,232.1946,-0.00019505,-0.00027923,0.0,0 STARLINK-3639,1 51789U 22017X   22076.58334491 -.00027923  00000-0 -19505-3 0  9994,2 51789  53.2191  44.9097 0001334  66.1119 232.1946 15.73216765  3644,6727.847,91.532,350.61,348.815,0.0
51789.0,STARLINK-3639,PAYLOAD,2022-03-17 22:00:00,15.73209164,0.0001393,53.2196,43.2593,74.8864,312.3519,0.00050466,0.00070833,0.0,0 STARLINK-3639,1 51789U 22017X   22076.91667824  .00070833  00000-0  50466-3 0  9997,2 51789  53.2196  43.2593 0001393  74.8864 312.3519 15.73209164  3697,6727.869000000002,91.533,350.671,348.797,0.0
51789.0,STARLINK-3639,PAYLOAD,2022-03-18 08:00:01,15.73239261,0.0001398,53.2198,41.1997,61.4063,167.0339,-0.00013291,-0.00019262,0.0,0 STARLINK-3639,1 51789U 22017X   22077.33334491 -.00019262  00000-0 -13291-3 0  9991,2 51789  53.2198  41.1997 0001398  61.4063 167.0339 15.73239261  4497,6727.783,91.531,350.589,348.708,0.0
51789.0,STARLINK-3639,PAYLOAD,2022-03-18 14:00:01,15.73248123,0.0001325,53.2194,39.9612,67.2425,137.9222,-0.00071721,-0.0010029,0.0,0 STARLINK-3639,1 51789U 22017X   22077.58334491 -.00100290  00000-0 -71721-3 0  9992,2 51789  53.2194  39.9612 0001325  67.2425 137.9222 15.73248123  3727,6727.7580000000025,91.53,350.514,348.732,0.0
51789.0,STARLINK-3639,PAYLOAD,2022-03-18 22:00:00,15.73199663,0.000129,53.2184,38.3064,75.8655,218.2374,0.00022028,0.00030406,0.0,0 STARLINK-3639,1 51789U 22017X   22077.91667824  .00030406  00000-0  22028-3 0  9993,2 51789  53.2184  38.3064 0001290  75.8655 218.2374 15.73199663  3771,6727.896,91.533,350.629,348.89300000000014,0.0
51789.0,STARLINK-3639,PAYLOAD,2022-03-19 02:00:01,15.73411765,0.0001458,53.2182,37.4808,69.13600000000001,89.4621,-0.004427,-0.00585831,0.0,0 STARLINK-3639,1 51789U 22017X   22078.08335648 -.00585831  00000-0 -44270-2 0  9999,2 51789  53.2182  37.4808 0001458  69.1360  89.4621 15.73411765  4617,6727.291,91.521,350.13699999999994,348.176,0.0
51789.0,STARLINK-3639,PAYLOAD,2022-03-19 14:00:01,15.73027231,0.0001204,53.2174,34.9998,70.3325,41.43,-0.0056538,-0.00723755,0.0,0 STARLINK-3639,1 51789U 22017X   22078.58334491 -.00723755  00000-0 -56538-2 0  9998,2 51789  53.2174  34.9998 0001204  70.3325  41.4300 15.73027231  4695,6728.388000000001,91.543,351.06300000000016,349.4430000000001,0.0
51789.0,STARLINK-3639,PAYLOAD,2022-03-19 22:00:01,15.72513281,0.0001240999999999,53.2176,33.3499,70.0514,130.1835,-0.0057266,-0.00717601,0.0,0 STARLINK-3639,1 51789U 22017X   22078.91668981 -.00717601  00000-0 -57266-2 0  9991,2 51789  53.2176  33.3499 0001241  70.0514 130.1835 15.72513281  3708,6729.854,91.573,352.55400000000014,350.884,0.0
51789.0,STARLINK-3639,PAYLOAD,2022-03-20 14:00:01,15.71493687,0.0001005,53.2176,30.0561,74.8151,300.3249,-0.0059925,-0.00718793,0.0,0 STARLINK-3639,1 51789U 22017X   22079.58334491 -.00718793  00000-0 -59925-2 0  9998,2 51789  53.2176  30.0561 0001005  74.8151 300.3249 15.71493687  3682,6732.764,91.633,355.306,353.95300000000015,0.0
51789.0,STARLINK-3639,PAYLOAD,2022-03-20 20:00:01,15.71109693,0.0001137,53.2176,28.8213,60.8786,289.2444,-0.0060636,-0.0071586,0.0,0 STARLINK-3639,1 51789U 22017X   22079.83334491 -.00715860  00000-0 -60636-2 0  9999,2 51789  53.2176  28.8213 0001137  60.8786 289.2444 15.71109693  4893,6733.861,91.655,356.492,354.961,0.0
51789.0,STARLINK-3639,PAYLOAD,2022-03-20 22:00:01,15.70982938,0.000126,53.2176,28.4105,54.67,47.1022,-0.0061073,-0.00717085,0.0,0 STARLINK-3639,1 51789U 22017X   22079.91668981 -.00717085  00000-0 -61073-2 0  9999,2 51789  53.2176  28.4105 0001260  54.6700  47.1022 15.70982938  3716,6734.224,91.662,356.93699999999984,355.24,0.0
51789.0,STARLINK-3639,PAYLOAD,2022-03-21 14:00:01,15.699656,0.0001114,53.2175,25.1239,81.2803,191.7195,-0.0064175,-0.00721505,0.0,0 STARLINK-3639,1 51789U 22017X   22080.58334491 -.00721505  00000-0 -64175-2 0  9998,2 51789  53.2175  25.1239 0001114  81.2803 191.7195 15.69965600  3694,6737.132,91.722,359.74800000000016,358.247,0.0
